{
  "type": "FeatureCollection",
  "features": [
    {
      "type": "Feature",
      "properties": {
        "norad_id": 34765,
        "name": "IRIDIUM 33 DEB",
        "group": "iridium-33-debris",
        "lat": 11.182601189568729,
        "lon": -146.49630723068464,
        "alt_km": 752.3043542086698,
        "timestamp": "2025-12-09T07:41:33.595875+00:00",
        "meta_object_name": "IRIDIUM 33 DEB",
        "meta_object_id": "1997-051LJ",
        "meta_epoch": "2025-12-08T21:29:33.152640",
        "meta_mean_motion": 14.40449465,
        "meta_eccentricity": 0.00150613,
        "meta_inclination": 86.3395,
        "meta_ra_of_asc_node": 34.4111,
        "meta_arg_of_pericenter": 224.9418,
        "meta_mean_anomaly": 261.3628,
        "meta_ephemeris_type": 0,
        "meta_classification_type": "U",
        "meta_norad_cat_id": 34765,
        "meta_element_set_no": 999,
        "meta_rev_at_epoch": 87558,
        "meta_bstar": 0.00055464873,
        "meta_mean_motion_dot": 1.783e-05,
        "meta_mean_motion_ddot": 0,
        "tle_line1": "1 34765U 97051LJ  25342.89552260  .00001783  00000+0  55465-3 0  9996",
        "tle_line2": "2 34765  86.3395  34.4111 0015061 224.9418 261.3628 14.40449465875580"
      },
      "geometry": {
        "type": "Point",
        "coordinates": [
          -146.49630723068464,
          11.182601189568729
        ]
      }
    },
    {
      "type": "Feature",
      "properties": {
        "norad_id": 34833,
        "name": "IRIDIUM 33 DEB",
        "group": "iridium-33-debris",
        "lat": 51.66645682049353,
        "lon": -132.1075886913083,
        "alt_km": 698.7018404379196,
        "timestamp": "2025-12-09T07:41:33.595896+00:00",
        "meta_object_name": "IRIDIUM 33 DEB",
        "meta_object_id": "1997-051MH",
        "meta_epoch": "2025-12-08T23:05:30.624000",
        "meta_mean_motion": 14.52340572,
        "meta_eccentricity": 0.00217836,
        "meta_inclination": 86.3932,
        "meta_ra_of_asc_node": 52.6222,
        "meta_arg_of_pericenter": 110.1341,
        "meta_mean_anomaly": 305.4079,
        "meta_ephemeris_type": 0,
        "meta_classification_type": "U",
        "meta_norad_cat_id": 34833,
        "meta_element_set_no": 999,
        "meta_rev_at_epoch": 87660,
        "meta_bstar": 0.00097622304,
        "meta_mean_motion_dot": 4.003e-05,
        "meta_mean_motion_ddot": 0,
        "tle_line1": "1 34833U 97051MH  25342.96216000  .00004003  00000+0  97622-3 0  9998",
        "tle_line2": "2 34833  86.3932  52.6222 0021783 110.1341 305.4079 14.52340572876603"
      },
      "geometry": {
        "type": "Point",
        "coordinates": [
          -132.1075886913083,
          51.66645682049353
        ]
      }
    },
    {
      "type": "Feature",
      "properties": {
        "norad_id": 34870,
        "name": "IRIDIUM 33 DEB",
        "group": "iridium-33-debris",
        "lat": 14.999359989387456,
        "lon": 134.65829226489907,
        "alt_km": 632.6269861963128,
        "timestamp": "2025-12-09T07:41:33.595914+00:00",
        "meta_object_name": "IRIDIUM 33 DEB",
        "meta_object_id": "1997-051MQ",
        "meta_epoch": "2025-12-07T16:41:29.147136",
        "meta_mean_motion": 14.76272854,
        "meta_eccentricity": 0.00154972,
        "meta_inclination": 86.3098,
        "meta_ra_of_asc_node": 316.3932,
        "meta_arg_of_pericenter": 201.8058,
        "meta_mean_anomaly": 332.1989,
        "meta_ephemeris_type": 0,
        "meta_classification_type": "U",
        "meta_norad_cat_id": 34870,
        "meta_element_set_no": 999,
        "meta_rev_at_epoch": 88836,
        "meta_bstar": 0.0021061979,
        "meta_mean_motion_dot": 0.00014658,
        "meta_mean_motion_ddot": 0,
        "tle_line1": "1 34870U 97051MQ  25341.69547624  .00014658  00000+0  21062-2 0  9998",
        "tle_line2": "2 34870  86.3098 316.3932 0015497 201.8058 332.1989 14.76272854888369"
      },
      "geometry": {
        "type": "Point",
        "coordinates": [
          134.65829226489907,
          14.999359989387456
        ]
      }
    },
    {
      "type": "Feature",
      "properties": {
        "norad_id": 34896,
        "name": "IRIDIUM 33 DEB",
        "group": "iridium-33-debris",
        "lat": 49.55219166347874,
        "lon": 143.90017072423416,
        "alt_km": 670.8540618551742,
        "timestamp": "2025-12-09T07:41:33.595931+00:00",
        "meta_object_name": "IRIDIUM 33 DEB",
        "meta_object_id": "1997-051MY",
        "meta_epoch": "2025-12-08T06:47:45.155328",
        "meta_mean_motion": 14.66206819,
        "meta_eccentricity": 0.00239488,
        "meta_inclination": 86.3293,
        "meta_ra_of_asc_node": 328.6838,
        "meta_arg_of_pericenter": 231.0822,
        "meta_mean_anomaly": 187.3834,
        "meta_ephemeris_type": 0,
        "meta_classification_type": "U",
        "meta_norad_cat_id": 34896,
        "meta_element_set_no": 999,
        "meta_rev_at_epoch": 87554,
        "meta_bstar": 0.001338628,
        "meta_mean_motion_dot": 7.421e-05,
        "meta_mean_motion_ddot": 0,
        "tle_line1": "1 34896U 97051MY  25342.28316152  .00007421  00000+0  13386-2 0  9992",
        "tle_line2": "2 34896  86.3293 328.6838 0023948 231.0822 187.3834 14.66206819875541"
      },
      "geometry": {
        "type": "Point",
        "coordinates": [
          143.90017072423416,
          49.55219166347874
        ]
      }
    },
    {
      "type": "Feature",
      "properties": {
        "norad_id": 34926,
        "name": "IRIDIUM 33 DEB",
        "group": "iridium-33-debris",
        "lat": 4.684425056451617,
        "lon": 10.175738530686267,
        "alt_km": 687.5300454643784,
        "timestamp": "2025-12-09T07:41:33.595947+00:00",
        "meta_object_name": "IRIDIUM 33 DEB",
        "meta_object_id": "1997-051NF",
        "meta_epoch": "2025-12-08T20:21:33.151968",
        "meta_mean_motion": 14.54128785,
        "meta_eccentricity": 0.00760259,
        "meta_inclination": 86.132,
        "meta_ra_of_asc_node": 10.0769,
        "meta_arg_of_pericenter": 306.1088,
        "meta_mean_anomaly": 107.4693,
        "meta_ephemeris_type": 0,
        "meta_classification_type": "U",
        "meta_norad_cat_id": 34926,
        "meta_element_set_no": 999,
        "meta_rev_at_epoch": 86400,
        "meta_bstar": 0.0065158018,
        "meta_mean_motion_dot": 0.00028723,
        "meta_mean_motion_ddot": 0,
        "tle_line1": "1 34926U 97051NF  25342.84830037  .00028723  00000+0  65158-2 0  9993",
        "tle_line2": "2 34926  86.1320  10.0769 0076025 306.1088 107.4693 14.54128785864008"
      },
      "geometry": {
        "type": "Point",
        "coordinates": [
          10.175738530686267,
          4.684425056451617
        ]
      }
    },
    {
      "type": "Feature",
      "properties": {
        "norad_id": 34985,
        "name": "IRIDIUM 33 DEB",
        "group": "iridium-33-debris",
        "lat": -79.08236342674742,
        "lon": 39.120662360499225,
        "alt_km": 749.7984801418197,
        "timestamp": "2025-12-09T07:41:33.595964+00:00",
        "meta_object_name": "IRIDIUM 33 DEB",
        "meta_object_id": "1997-051NR",
        "meta_epoch": "2025-12-08T05:40:04.658592",
        "meta_mean_motion": 14.41979756,
        "meta_eccentricity": 0.00202828,
        "meta_inclination": 86.3695,
        "meta_ra_of_asc_node": 58.8006,
        "meta_arg_of_pericenter": 235.2895,
        "meta_mean_anomaly": 179.3648,
        "meta_ephemeris_type": 0,
        "meta_classification_type": "U",
        "meta_norad_cat_id": 34985,
        "meta_element_set_no": 999,
        "meta_rev_at_epoch": 87110,
        "meta_bstar": 0.0010950657,
        "meta_mean_motion_dot": 3.617e-05,
        "meta_mean_motion_ddot": 0,
        "tle_line1": "1 34985U 97051NR  25342.23616503  .00003617  00000+0  10951-2 0  9997",
        "tle_line2": "2 34985  86.3695  58.8006 0020282 235.2895 179.3648 14.41979756871101"
      },
      "geometry": {
        "type": "Point",
        "coordinates": [
          39.120662360499225,
          -79.08236342674742
        ]
      }
    },
    {
      "type": "Feature",
      "properties": {
        "norad_id": 35051,
        "name": "IRIDIUM 33 DEB",
        "group": "iridium-33-debris",
        "lat": 35.52153450903454,
        "lon": -172.27725860016977,
        "alt_km": 725.8665419176987,
        "timestamp": "2025-12-09T07:41:33.595980+00:00",
        "meta_object_name": "IRIDIUM 33 DEB",
        "meta_object_id": "1997-051NX",
        "meta_epoch": "2025-12-08T19:24:58.044960",
        "meta_mean_motion": 14.47572985,
        "meta_eccentricity": 0.00105834,
        "meta_inclination": 86.3244,
        "meta_ra_of_asc_node": 10.5757,
        "meta_arg_of_pericenter": 101.6319,
        "meta_mean_anomaly": 258.6072,
        "meta_ephemeris_type": 0,
        "meta_classification_type": "U",
        "meta_norad_cat_id": 35051,
        "meta_element_set_no": 999,
        "meta_rev_at_epoch": 86939,
        "meta_bstar": 0.001137816,
        "meta_mean_motion_dot": 4.208e-05,
        "meta_mean_motion_ddot": 0,
        "tle_line1": "1 35051U 97051NX  25342.80900515  .00004208  00000+0  11378-2 0  9995",
        "tle_line2": "2 35051  86.3244  10.5757 0010583 101.6319 258.6072 14.47572985869393"
      },
      "geometry": {
        "type": "Point",
        "coordinates": [
          -172.27725860016977,
          35.52153450903454
        ]
      }
    }
  ]
}